{
  "type": "FeatureCollection",
  "features": [
    {
      "type": "Feature",
      "properties": {
        "id": "flow-rajajinagar-silkboard",
        "title": "Rajajinagar Transit Benefit Flow",
        "label": "Rajajinagar ➔ Silk Board Corridor (Green Line Feeder · Saves 42m)",
        "color": "#c084fc"
      },
      "geometry": {
        "type": "LineString",
        "coordinates": [
          [77.5535, 12.9975],
          [77.5640, 12.9860],
          [77.5710, 12.9780],
          [77.5760, 12.9640],
          [77.5850, 12.9520],
          [77.5800, 12.9220],
          [77.6050, 12.9160],
          [77.6245, 12.9176]
        ]
      }
    },
    {
      "type": "Feature",
      "properties": {
        "id": "flow-indiranagar-bellandur",
        "title": "Indiranagar Transit Benefit Flow",
        "label": "Indiranagar ➔ Bellandur Corridor (Purple Line Interchange · Saves 38m)",
        "color": "#38bdf8"
      },
      "geometry": {
        "type": "LineString",
        "coordinates": [
          [77.6405, 12.9735],
          [77.6520, 12.9600],
          [77.6650, 12.9420],
          [77.6815, 12.9295]
        ]
      }
    }
  ]
}
