{"type":"FeatureCollection","features":[{"type":"Feature","properties":{"name":"Nagasandra","color":"green"},"geometry":{"type":"Point","coordinates":[77.46964337574,13.05827171823]}},{"type":"Feature","properties":{"name":"Dasarahalli","color":"green"},"geometry":{"type":"Point","coordinates":[77.48035141464992,13.055193658363065]}},{"type":"Feature","properties":{"name":"Jalahalli","color":"green"},"geometry":{"type":"Point","coordinates":[77.49082200676632,13.051349172371314]}},{"type":"Feature","properties":{"name":"Peenya Industry","color":"green"},"geometry":{"type":"Point","coordinates":[77.50131780790238,13.047581268487246]}},{"type":"Feature","properties":{"name":"Peenya","color":"green"},"geometry":{"type":"Point","coordinates":[77.51169589826041,13.043592020885734]}},{"type":"Feature","properties":{"name":"Goraguntepalya","color":"green"},"geometry":{"type":"Point","coordinates":[77.52147088755895,13.038585498384824]}},{"type":"Feature","properties":{"name":"Yeshwanthpur","color":"green"},"geometry":{"type":"Point","coordinates":[77.53156138432719,13.03402213599138]}},{"type":"Feature","properties":{"name":"Sandal Soap Factory","color":"green"},"geometry":{"type":"Point","coordinates":[77.54110167113569,13.028335035307752]}},{"type":"Feature","properties":{"name":"Mahalakshmi","color":"green"},"geometry":{"type":"Point","coordinates":[77.55073701037854,13.022795456679459]}},{"type":"Feature","properties":{"name":"Rajajinagar","color":"green"},"geometry":{"type":"Point","coordinates":[77.55367865771142,13.012967258762163]}},{"type":"Feature","properties":{"name":"Kuvempu Road","color":"green"},"geometry":{"type":"Point","coordinates":[77.54908188915472,13.004445879540887]}},{"type":"Feature","properties":{"name":"Srirampura","color":"green"},"geometry":{"type":"Point","coordinates":[77.55472469894174,12.998556289116813]}},{"type":"Feature","properties":{"name":"Mantri Square","color":"green"},"geometry":{"type":"Point","coordinates":[77.56548596282876,12.996377942770922]}},{"type":"Feature","properties":{"name":"Majestic","color":"green"},"geometry":{"type":"Point","coordinates":[77.57196279557442,12.988105212455679]}},{"type":"Feature","properties":{"name":"Chickpete","color":"green"},"geometry":{"type":"Point","coordinates":[77.57290805542117,12.977395134489933]}},{"type":"Feature","properties":{"name":"KR Market","color":"green"},"geometry":{"type":"Point","coordinates":[77.57461423427759,12.96684830673858]}},{"type":"Feature","properties":{"name":"National College","color":"green"},"geometry":{"type":"Point","coordinates":[77.57370259100047,12.956155463532099]}},{"type":"Feature","properties":{"name":"Lalbagh","color":"green"},"geometry":{"type":"Point","coordinates":[77.57753160762314,12.948299538359176]}},{"type":"Feature","properties":{"name":"South End Circle","color":"green"},"geometry":{"type":"Point","coordinates":[77.58011296356409,12.939420180633217]}},{"type":"Feature","properties":{"name":"Jayanagar","color":"green"},"geometry":{"type":"Point","coordinates":[77.5802362500377,12.928519773442984]}},{"type":"Feature","properties":{"name":"RV Road","color":"green"},"geometry":{"type":"Point","coordinates":[77.58012793068103,12.917667694479624]}},{"type":"Feature","properties":{"name":"Banashankari","color":"green"},"geometry":{"type":"Point","coordinates":[77.57308314879609,12.912707630423833]}},{"type":"Feature","properties":{"name":"JP Nagar","color":"green"},"geometry":{"type":"Point","coordinates":[77.57350789598013,12.901865720971436]}},{"type":"Feature","properties":{"name":"Yelachenahalli","color":"green"},"geometry":{"type":"Point","coordinates":[77.56727857635609,12.893064694926677]}},{"type":"Feature","properties":{"name":"Konanakunte Cross","color":"green"},"geometry":{"type":"Point","coordinates":[77.55849532119679,12.886505912080793]}},{"type":"Feature","properties":{"name":"Doddakallasandra","color":"green"},"geometry":{"type":"Point","coordinates":[77.54780230651251,12.883332271672879]}},{"type":"Feature","properties":{"name":"Vajarahalli","color":"green"},"geometry":{"type":"Point","coordinates":[77.5418631308038,12.874650930477985]}},{"type":"Feature","properties":{"name":"Thalaghattapura","color":"green"},"geometry":{"type":"Point","coordinates":[77.53458512332406,12.86650615505995]}},{"type":"Feature","properties":{"name":"Silk Institute","color":"green"},"geometry":{"type":"Point","coordinates":[77.52773177574,12.85806875533]}},{"type":"Feature","properties":{"name":"Whitefield","color":"purple"},"geometry":{"type":"Point","coordinates":[77.46074977574,12.89682544819]}},{"type":"Feature","properties":{"name":"Hopefarm Channasandra","color":"purple"},"geometry":{"type":"Point","coordinates":[77.46985705614107,12.902983749308788]}},{"type":"Feature","properties":{"name":"Kadugodi","color":"purple"},"geometry":{"type":"Point","coordinates":[77.47881646305372,12.908780711952835]}},{"type":"Feature","properties":{"name":"Pattandur Agrahara","color":"purple"},"geometry":{"type":"Point","coordinates":[77.48748792539706,12.914352199671843]}},{"type":"Feature","properties":{"name":"Sri Sathya Sai Hospital","color":"purple"},"geometry":{"type":"Point","coordinates":[77.49496359087922,12.92216119072687]}},{"type":"Feature","properties":{"name":"Nallurhalli","color":"purple"},"geometry":{"type":"Point","coordinates":[77.503660041853,12.928811799512474]}},{"type":"Feature","properties":{"name":"Kundalahalli","color":"purple"},"geometry":{"type":"Point","coordinates":[77.51223601569349,12.93536501818756]}},{"type":"Feature","properties":{"name":"Seetharamapalya","color":"purple"},"geometry":{"type":"Point","coordinates":[77.5224796926704,12.938606997551236]}},{"type":"Feature","properties":{"name":"Hoodi","color":"purple"},"geometry":{"type":"Point","coordinates":[77.52983513466306,12.94655398760515]}},{"type":"Feature","properties":{"name":"Garudacharapalya","color":"purple"},"geometry":{"type":"Point","coordinates":[77.53695580211844,12.952648200394904]}},{"type":"Feature","properties":{"name":"Mahadevapura","color":"purple"},"geometry":{"type":"Point","coordinates":[77.5338904820033,12.962378945010427]}},{"type":"Feature","properties":{"name":"KR Puram","color":"purple"},"geometry":{"type":"Point","coordinates":[77.53812493499171,12.972427873087343]}},{"type":"Feature","properties":{"name":"Benniganahalli","color":"purple"},"geometry":{"type":"Point","coordinates":[77.54883645024672,12.97451777570976]}},{"type":"Feature","properties":{"name":"Baiyappanahalli","color":"purple"},"geometry":{"type":"Point","coordinates":[77.55924581101931,12.97582406489033]}},{"type":"Feature","properties":{"name":"Swami Vivekananda Road","color":"purple"},"geometry":{"type":"Point","coordinates":[77.57037554572648,12.975947502660057]}},{"type":"Feature","properties":{"name":"Indiranagar","color":"purple"},"geometry":{"type":"Point","coordinates":[77.5810115721772,12.973094326212985]}},{"type":"Feature","properties":{"name":"Halasuru","color":"purple"},"geometry":{"type":"Point","coordinates":[77.59093507160392,12.977820671987272]}},{"type":"Feature","properties":{"name":"Trinity","color":"purple"},"geometry":{"type":"Point","coordinates":[77.60013557357473,12.980037940692366]}},{"type":"Feature","properties":{"name":"MG Road","color":"purple"},"geometry":{"type":"Point","coordinates":[77.60904167794403,12.974952595528357]}},{"type":"Feature","properties":{"name":"Cubbon Park","color":"purple"},"geometry":{"type":"Point","coordinates":[77.61992015542518,12.972681387979934]}},{"type":"Feature","properties":{"name":"Vidhana Soudha","color":"purple"},"geometry":{"type":"Point","coordinates":[77.62896479795782,12.978434757615709]}},{"type":"Feature","properties":{"name":"Sir M Visvesvaraya","color":"purple"},"geometry":{"type":"Point","coordinates":[77.64009238036175,12.978417543476558]}},{"type":"Feature","properties":{"name":"Majestic","color":"purple"},"geometry":{"type":"Point","coordinates":[77.6453088752358,12.986081037013037]}},{"type":"Feature","properties":{"name":"City Railway Station","color":"purple"},"geometry":{"type":"Point","coordinates":[77.65434124299736,12.991239322653174]}},{"type":"Feature","properties":{"name":"Magadi Road","color":"purple"},"geometry":{"type":"Point","coordinates":[77.66417682694127,12.99532740067688]}},{"type":"Feature","properties":{"name":"Hosahalli","color":"purple"},"geometry":{"type":"Point","coordinates":[77.67455240766967,12.998990877122926]}},{"type":"Feature","properties":{"name":"Vijayanagar","color":"purple"},"geometry":{"type":"Point","coordinates":[77.68545339980763,13.000325621028855]}},{"type":"Feature","properties":{"name":"Attiguppe","color":"purple"},"geometry":{"type":"Point","coordinates":[77.69526021544034,12.995571806367362]}},{"type":"Feature","properties":{"name":"Deepanjali Nagar","color":"purple"},"geometry":{"type":"Point","coordinates":[77.70606551484532,12.993018446175514]}},{"type":"Feature","properties":{"name":"Mysuru Road","color":"purple"},"geometry":{"type":"Point","coordinates":[77.71242438745881,12.989466691336306]}},{"type":"Feature","properties":{"name":"Nayandahalli","color":"purple"},"geometry":{"type":"Point","coordinates":[77.70894304143738,12.980543312589555]}},{"type":"Feature","properties":{"name":"Rajarajeshwari Nagar","color":"purple"},"geometry":{"type":"Point","coordinates":[77.71854453476178,12.977315403091112]}},{"type":"Feature","properties":{"name":"Jnanabharathi","color":"purple"},"geometry":{"type":"Point","coordinates":[77.72743762403556,12.979150754889064]}},{"type":"Feature","properties":{"name":"Pattanagere","color":"purple"},"geometry":{"type":"Point","coordinates":[77.7331230500833,12.987841131483261]}},{"type":"Feature","properties":{"name":"Kengeri Bus Terminal","color":"purple"},"geometry":{"type":"Point","coordinates":[77.74411600180174,12.9866279226185]}},{"type":"Feature","properties":{"name":"Kengeri","color":"purple"},"geometry":{"type":"Point","coordinates":[77.75361615142977,12.98645313807056]}},{"type":"Feature","properties":{"name":"Challaghatta","color":"purple"},"geometry":{"type":"Point","coordinates":[77.75818307574,12.99626342978]}},{"type":"Feature","properties":{"name":"RV Road","color":"yellow"},"geometry":{"type":"Point","coordinates":[77.5802,12.9213]}},{"type":"Feature","properties":{"name":"Ragigudda","color":"yellow"},"geometry":{"type":"Point","coordinates":[77.58990856531629,12.917422898011871]}},{"type":"Feature","properties":{"name":"Jayadeva","color":"yellow"},"geometry":{"type":"Point","coordinates":[77.60095779546165,12.917479962743002]}},{"type":"Feature","properties":{"name":"BTM Layout","color":"yellow"},"geometry":{"type":"Point","coordinates":[77.61200703063436,12.917536563194892]}},{"type":"Feature","properties":{"name":"Central Silk Board","color":"yellow"},"geometry":{"type":"Point","coordinates":[77.62305627079336,12.917592699365228]}},{"type":"Feature","properties":{"name":"Bommanahalli","color":"yellow"},"geometry":{"type":"Point","coordinates":[77.62883301860022,12.90924416674311]}},{"type":"Feature","properties":{"name":"Hongasandra","color":"yellow"},"geometry":{"type":"Point","coordinates":[77.63381694091368,12.899632345682242]}},{"type":"Feature","properties":{"name":"Kudlu Gate","color":"yellow"},"geometry":{"type":"Point","coordinates":[77.63879835305791,12.890019386961516]}},{"type":"Feature","properties":{"name":"Singasandra","color":"yellow"},"geometry":{"type":"Point","coordinates":[77.6437462317907,12.88039007481472]}},{"type":"Feature","properties":{"name":"Hosa Road","color":"yellow"},"geometry":{"type":"Point","coordinates":[77.64869373023163,12.870760669823355]}},{"type":"Feature","properties":{"name":"Beratena Agrahara","color":"yellow"},"geometry":{"type":"Point","coordinates":[77.65369817649162,12.861163617606291]}},{"type":"Feature","properties":{"name":"Electronic City","color":"yellow"},"geometry":{"type":"Point","coordinates":[77.65982237532828,12.852200419942289]}},{"type":"Feature","properties":{"name":"Infosys Foundation","color":"yellow"},"geometry":{"type":"Point","coordinates":[77.66594613701221,12.84323708032917]}},{"type":"Feature","properties":{"name":"Huskur Road","color":"yellow"},"geometry":{"type":"Point","coordinates":[77.67202720249982,12.834247217950297]}},{"type":"Feature","properties":{"name":"Hebbagodi","color":"yellow"},"geometry":{"type":"Point","coordinates":[77.67781381216251,12.825073672215824]}},{"type":"Feature","properties":{"name":"Bommasandra","color":"yellow"},"geometry":{"type":"Point","coordinates":[77.68359999999998,12.8159]}}]}