{
  "type": "FeatureCollection",
  "features": [
    {
      "type": "Feature",
      "geometry": {
        "type": "LineString",
        "coordinates": [
          [
            78.3614,
            17.4968
          ],
          [
            78.3912,
            17.4935
          ],
          [
            78.4035,
            17.4878
          ],
          [
            78.4144,
            17.4841
          ],
          [
            78.4285,
            17.4764
          ],
          [
            78.4357,
            17.4697
          ],
          [
            78.4412,
            17.4632
          ],
          [
            78.4468,
            17.4578
          ],
          [
            78.4485,
            17.4502
          ],
          [
            78.448,
            17.4435
          ],
          [
            78.4482,
            17.4375
          ],
          [
            78.4528,
            17.4265
          ],
          [
            78.4578,
            17.4208
          ],
          [
            78.4612,
            17.4114
          ],
          [
            78.4655,
            17.4048
          ],
          [
            78.4712,
            17.3995
          ],
          [
            78.4715,
            17.3918
          ],
          [
            78.4745,
            17.3862
          ],
          [
            78.4802,
            17.3824
          ],
          [
            78.4848,
            17.3785
          ],
          [
            78.4965,
            17.3748
          ],
          [
            78.5028,
            17.3712
          ],
          [
            78.5112,
            17.3685
          ],
          [
            78.5255,
            17.3688
          ],
          [
            78.5368,
            17.3662
          ],
          [
            78.5442,
            17.3602
          ],
          [
            78.5528,
            17.3495
          ]
        ]
      },
      "properties": {
        "line_name": "Red Line (Corridor I)",
        "colour": "red",
        "hex_color": "#ef4444",
        "stations_count": 27,
        "operator": "L&T Metro Rail Hyderabad (HMRL)"
      }
    },
    {
      "type": "Feature",
      "geometry": {
        "type": "LineString",
        "coordinates": [
          [
            78.3778,
            17.4432
          ],
          [
            78.3792,
            17.4485
          ],
          [
            78.3895,
            17.4445
          ],
          [
            78.3975,
            17.4388
          ],
          [
            78.4068,
            17.4332
          ],
          [
            78.4125,
            17.4298
          ],
          [
            78.4208,
            17.4295
          ],
          [
            78.4295,
            17.4325
          ],
          [
            78.4385,
            17.4352
          ],
          [
            78.4482,
            17.4375
          ],
          [
            78.4602,
            17.4398
          ],
          [
            78.4685,
            17.4442
          ],
          [
            78.4795,
            17.4448
          ],
          [
            78.4895,
            17.4428
          ],
          [
            78.5002,
            17.4445
          ],
          [
            78.5035,
            17.4348
          ],
          [
            78.5165,
            17.4328
          ],
          [
            78.5312,
            17.4295
          ],
          [
            78.5412,
            17.4198
          ],
          [
            78.5525,
            17.4125
          ],
          [
            78.5582,
            17.4048
          ],
          [
            78.5635,
            17.3995
          ],
          [
            78.5682,
            17.3898
          ]
        ]
      },
      "properties": {
        "line_name": "Blue Line (Corridor III)",
        "colour": "blue",
        "hex_color": "#0284c7",
        "stations_count": 23,
        "operator": "L&T Metro Rail Hyderabad (HMRL)"
      }
    },
    {
      "type": "Feature",
      "geometry": {
        "type": "LineString",
        "coordinates": [
          [
            78.4985,
            17.4485
          ],
          [
            78.4998,
            17.4392
          ],
          [
            78.5042,
            17.4248
          ],
          [
            78.5055,
            17.4185
          ],
          [
            78.4995,
            17.4082
          ],
          [
            78.4952,
            17.4002
          ],
          [
            78.4912,
            17.3942
          ],
          [
            78.4882,
            17.3862
          ],
          [
            78.4848,
            17.3785
          ]
        ]
      },
      "properties": {
        "line_name": "Green Line (Corridor II)",
        "colour": "green",
        "hex_color": "#22c55e",
        "stations_count": 9,
        "operator": "L&T Metro Rail Hyderabad (HMRL)"
      }
    },
    {
      "type": "Feature",
      "geometry": {
        "type": "Point",
        "coordinates": [
          78.3614,
          17.4968
        ]
      },
      "properties": {
        "station_name": "Miyapur",
        "line": "Red Line (Corridor I)",
        "colour": "red",
        "is_interchange": false
      }
    },
    {
      "type": "Feature",
      "geometry": {
        "type": "Point",
        "coordinates": [
          78.3912,
          17.4935
        ]
      },
      "properties": {
        "station_name": "JNTU College",
        "line": "Red Line (Corridor I)",
        "colour": "red",
        "is_interchange": false
      }
    },
    {
      "type": "Feature",
      "geometry": {
        "type": "Point",
        "coordinates": [
          78.4035,
          17.4878
        ]
      },
      "properties": {
        "station_name": "KPHB Colony",
        "line": "Red Line (Corridor I)",
        "colour": "red",
        "is_interchange": false
      }
    },
    {
      "type": "Feature",
      "geometry": {
        "type": "Point",
        "coordinates": [
          78.4144,
          17.4841
        ]
      },
      "properties": {
        "station_name": "Kukatpally",
        "line": "Red Line (Corridor I)",
        "colour": "red",
        "is_interchange": false
      }
    },
    {
      "type": "Feature",
      "geometry": {
        "type": "Point",
        "coordinates": [
          78.4285,
          17.4764
        ]
      },
      "properties": {
        "station_name": "Balanagar",
        "line": "Red Line (Corridor I)",
        "colour": "red",
        "is_interchange": false
      }
    },
    {
      "type": "Feature",
      "geometry": {
        "type": "Point",
        "coordinates": [
          78.4357,
          17.4697
        ]
      },
      "properties": {
        "station_name": "Moosapet",
        "line": "Red Line (Corridor I)",
        "colour": "red",
        "is_interchange": false
      }
    },
    {
      "type": "Feature",
      "geometry": {
        "type": "Point",
        "coordinates": [
          78.4412,
          17.4632
        ]
      },
      "properties": {
        "station_name": "Bharat Nagar",
        "line": "Red Line (Corridor I)",
        "colour": "red",
        "is_interchange": false
      }
    },
    {
      "type": "Feature",
      "geometry": {
        "type": "Point",
        "coordinates": [
          78.4468,
          17.4578
        ]
      },
      "properties": {
        "station_name": "Erragadda",
        "line": "Red Line (Corridor I)",
        "colour": "red",
        "is_interchange": false
      }
    },
    {
      "type": "Feature",
      "geometry": {
        "type": "Point",
        "coordinates": [
          78.4485,
          17.4502
        ]
      },
      "properties": {
        "station_name": "ESI Hospital",
        "line": "Red Line (Corridor I)",
        "colour": "red",
        "is_interchange": false
      }
    },
    {
      "type": "Feature",
      "geometry": {
        "type": "Point",
        "coordinates": [
          78.448,
          17.4435
        ]
      },
      "properties": {
        "station_name": "SR Nagar",
        "line": "Red Line (Corridor I)",
        "colour": "red",
        "is_interchange": false
      }
    },
    {
      "type": "Feature",
      "geometry": {
        "type": "Point",
        "coordinates": [
          78.4482,
          17.4375
        ]
      },
      "properties": {
        "station_name": "Ameerpet",
        "line": "Red Line (Corridor I)",
        "colour": "red",
        "is_interchange": true
      }
    },
    {
      "type": "Feature",
      "geometry": {
        "type": "Point",
        "coordinates": [
          78.4528,
          17.4265
        ]
      },
      "properties": {
        "station_name": "Punjagutta",
        "line": "Red Line (Corridor I)",
        "colour": "red",
        "is_interchange": false
      }
    },
    {
      "type": "Feature",
      "geometry": {
        "type": "Point",
        "coordinates": [
          78.4578,
          17.4208
        ]
      },
      "properties": {
        "station_name": "Irrum Manzil",
        "line": "Red Line (Corridor I)",
        "colour": "red",
        "is_interchange": false
      }
    },
    {
      "type": "Feature",
      "geometry": {
        "type": "Point",
        "coordinates": [
          78.4612,
          17.4114
        ]
      },
      "properties": {
        "station_name": "Khairatabad",
        "line": "Red Line (Corridor I)",
        "colour": "red",
        "is_interchange": false
      }
    },
    {
      "type": "Feature",
      "geometry": {
        "type": "Point",
        "coordinates": [
          78.4655,
          17.4048
        ]
      },
      "properties": {
        "station_name": "Lakdi-ka-pul",
        "line": "Red Line (Corridor I)",
        "colour": "red",
        "is_interchange": false
      }
    },
    {
      "type": "Feature",
      "geometry": {
        "type": "Point",
        "coordinates": [
          78.4712,
          17.3995
        ]
      },
      "properties": {
        "station_name": "Assembly",
        "line": "Red Line (Corridor I)",
        "colour": "red",
        "is_interchange": false
      }
    },
    {
      "type": "Feature",
      "geometry": {
        "type": "Point",
        "coordinates": [
          78.4715,
          17.3918
        ]
      },
      "properties": {
        "station_name": "Nampally",
        "line": "Red Line (Corridor I)",
        "colour": "red",
        "is_interchange": false
      }
    },
    {
      "type": "Feature",
      "geometry": {
        "type": "Point",
        "coordinates": [
          78.4745,
          17.3862
        ]
      },
      "properties": {
        "station_name": "Gandhi Bhavan",
        "line": "Red Line (Corridor I)",
        "colour": "red",
        "is_interchange": false
      }
    },
    {
      "type": "Feature",
      "geometry": {
        "type": "Point",
        "coordinates": [
          78.4802,
          17.3824
        ]
      },
      "properties": {
        "station_name": "Osmania Medical College",
        "line": "Red Line (Corridor I)",
        "colour": "red",
        "is_interchange": false
      }
    },
    {
      "type": "Feature",
      "geometry": {
        "type": "Point",
        "coordinates": [
          78.4848,
          17.3785
        ]
      },
      "properties": {
        "station_name": "MGBS",
        "line": "Red Line (Corridor I)",
        "colour": "red",
        "is_interchange": true
      }
    },
    {
      "type": "Feature",
      "geometry": {
        "type": "Point",
        "coordinates": [
          78.4965,
          17.3748
        ]
      },
      "properties": {
        "station_name": "Malakpet",
        "line": "Red Line (Corridor I)",
        "colour": "red",
        "is_interchange": false
      }
    },
    {
      "type": "Feature",
      "geometry": {
        "type": "Point",
        "coordinates": [
          78.5028,
          17.3712
        ]
      },
      "properties": {
        "station_name": "New Market",
        "line": "Red Line (Corridor I)",
        "colour": "red",
        "is_interchange": false
      }
    },
    {
      "type": "Feature",
      "geometry": {
        "type": "Point",
        "coordinates": [
          78.5112,
          17.3685
        ]
      },
      "properties": {
        "station_name": "Musarambagh",
        "line": "Red Line (Corridor I)",
        "colour": "red",
        "is_interchange": false
      }
    },
    {
      "type": "Feature",
      "geometry": {
        "type": "Point",
        "coordinates": [
          78.5255,
          17.3688
        ]
      },
      "properties": {
        "station_name": "Dilsukhnagar",
        "line": "Red Line (Corridor I)",
        "colour": "red",
        "is_interchange": false
      }
    },
    {
      "type": "Feature",
      "geometry": {
        "type": "Point",
        "coordinates": [
          78.5368,
          17.3662
        ]
      },
      "properties": {
        "station_name": "Chaitanyapuri",
        "line": "Red Line (Corridor I)",
        "colour": "red",
        "is_interchange": false
      }
    },
    {
      "type": "Feature",
      "geometry": {
        "type": "Point",
        "coordinates": [
          78.5442,
          17.3602
        ]
      },
      "properties": {
        "station_name": "Victoria Memorial",
        "line": "Red Line (Corridor I)",
        "colour": "red",
        "is_interchange": false
      }
    },
    {
      "type": "Feature",
      "geometry": {
        "type": "Point",
        "coordinates": [
          78.5528,
          17.3495
        ]
      },
      "properties": {
        "station_name": "LB Nagar",
        "line": "Red Line (Corridor I)",
        "colour": "red",
        "is_interchange": false
      }
    },
    {
      "type": "Feature",
      "geometry": {
        "type": "Point",
        "coordinates": [
          78.3778,
          17.4432
        ]
      },
      "properties": {
        "station_name": "Raidurg",
        "line": "Blue Line (Corridor III)",
        "colour": "blue",
        "is_interchange": false
      }
    },
    {
      "type": "Feature",
      "geometry": {
        "type": "Point",
        "coordinates": [
          78.3792,
          17.4485
        ]
      },
      "properties": {
        "station_name": "Hitec City",
        "line": "Blue Line (Corridor III)",
        "colour": "blue",
        "is_interchange": false
      }
    },
    {
      "type": "Feature",
      "geometry": {
        "type": "Point",
        "coordinates": [
          78.3895,
          17.4445
        ]
      },
      "properties": {
        "station_name": "Durgam Cheruvu",
        "line": "Blue Line (Corridor III)",
        "colour": "blue",
        "is_interchange": false
      }
    },
    {
      "type": "Feature",
      "geometry": {
        "type": "Point",
        "coordinates": [
          78.3975,
          17.4388
        ]
      },
      "properties": {
        "station_name": "Madhapur",
        "line": "Blue Line (Corridor III)",
        "colour": "blue",
        "is_interchange": false
      }
    },
    {
      "type": "Feature",
      "geometry": {
        "type": "Point",
        "coordinates": [
          78.4068,
          17.4332
        ]
      },
      "properties": {
        "station_name": "Peddamma Gudi",
        "line": "Blue Line (Corridor III)",
        "colour": "blue",
        "is_interchange": false
      }
    },
    {
      "type": "Feature",
      "geometry": {
        "type": "Point",
        "coordinates": [
          78.4125,
          17.4298
        ]
      },
      "properties": {
        "station_name": "Jubilee Hills Check Post",
        "line": "Blue Line (Corridor III)",
        "colour": "blue",
        "is_interchange": false
      }
    },
    {
      "type": "Feature",
      "geometry": {
        "type": "Point",
        "coordinates": [
          78.4208,
          17.4295
        ]
      },
      "properties": {
        "station_name": "Road No 5 Jubilee Hills",
        "line": "Blue Line (Corridor III)",
        "colour": "blue",
        "is_interchange": false
      }
    },
    {
      "type": "Feature",
      "geometry": {
        "type": "Point",
        "coordinates": [
          78.4295,
          17.4325
        ]
      },
      "properties": {
        "station_name": "Yusufguda",
        "line": "Blue Line (Corridor III)",
        "colour": "blue",
        "is_interchange": false
      }
    },
    {
      "type": "Feature",
      "geometry": {
        "type": "Point",
        "coordinates": [
          78.4385,
          17.4352
        ]
      },
      "properties": {
        "station_name": "Madhura Nagar",
        "line": "Blue Line (Corridor III)",
        "colour": "blue",
        "is_interchange": false
      }
    },
    {
      "type": "Feature",
      "geometry": {
        "type": "Point",
        "coordinates": [
          78.4482,
          17.4375
        ]
      },
      "properties": {
        "station_name": "Ameerpet",
        "line": "Blue Line (Corridor III)",
        "colour": "blue",
        "is_interchange": true
      }
    },
    {
      "type": "Feature",
      "geometry": {
        "type": "Point",
        "coordinates": [
          78.4602,
          17.4398
        ]
      },
      "properties": {
        "station_name": "Begumpet",
        "line": "Blue Line (Corridor III)",
        "colour": "blue",
        "is_interchange": false
      }
    },
    {
      "type": "Feature",
      "geometry": {
        "type": "Point",
        "coordinates": [
          78.4685,
          17.4442
        ]
      },
      "properties": {
        "station_name": "Prakash Nagar",
        "line": "Blue Line (Corridor III)",
        "colour": "blue",
        "is_interchange": false
      }
    },
    {
      "type": "Feature",
      "geometry": {
        "type": "Point",
        "coordinates": [
          78.4795,
          17.4448
        ]
      },
      "properties": {
        "station_name": "Rasoolpura",
        "line": "Blue Line (Corridor III)",
        "colour": "blue",
        "is_interchange": false
      }
    },
    {
      "type": "Feature",
      "geometry": {
        "type": "Point",
        "coordinates": [
          78.4895,
          17.4428
        ]
      },
      "properties": {
        "station_name": "Paradise",
        "line": "Blue Line (Corridor III)",
        "colour": "blue",
        "is_interchange": false
      }
    },
    {
      "type": "Feature",
      "geometry": {
        "type": "Point",
        "coordinates": [
          78.5002,
          17.4445
        ]
      },
      "properties": {
        "station_name": "Parade Ground",
        "line": "Blue Line (Corridor III)",
        "colour": "blue",
        "is_interchange": true
      }
    },
    {
      "type": "Feature",
      "geometry": {
        "type": "Point",
        "coordinates": [
          78.5035,
          17.4348
        ]
      },
      "properties": {
        "station_name": "Secunderabad East",
        "line": "Blue Line (Corridor III)",
        "colour": "blue",
        "is_interchange": false
      }
    },
    {
      "type": "Feature",
      "geometry": {
        "type": "Point",
        "coordinates": [
          78.5165,
          17.4328
        ]
      },
      "properties": {
        "station_name": "Mettuguda",
        "line": "Blue Line (Corridor III)",
        "colour": "blue",
        "is_interchange": false
      }
    },
    {
      "type": "Feature",
      "geometry": {
        "type": "Point",
        "coordinates": [
          78.5312,
          17.4295
        ]
      },
      "properties": {
        "station_name": "Tarnaka",
        "line": "Blue Line (Corridor III)",
        "colour": "blue",
        "is_interchange": false
      }
    },
    {
      "type": "Feature",
      "geometry": {
        "type": "Point",
        "coordinates": [
          78.5412,
          17.4198
        ]
      },
      "properties": {
        "station_name": "Habsiguda",
        "line": "Blue Line (Corridor III)",
        "colour": "blue",
        "is_interchange": false
      }
    },
    {
      "type": "Feature",
      "geometry": {
        "type": "Point",
        "coordinates": [
          78.5525,
          17.4125
        ]
      },
      "properties": {
        "station_name": "NGRI",
        "line": "Blue Line (Corridor III)",
        "colour": "blue",
        "is_interchange": false
      }
    },
    {
      "type": "Feature",
      "geometry": {
        "type": "Point",
        "coordinates": [
          78.5582,
          17.4048
        ]
      },
      "properties": {
        "station_name": "Stadium",
        "line": "Blue Line (Corridor III)",
        "colour": "blue",
        "is_interchange": false
      }
    },
    {
      "type": "Feature",
      "geometry": {
        "type": "Point",
        "coordinates": [
          78.5635,
          17.3995
        ]
      },
      "properties": {
        "station_name": "Uppal",
        "line": "Blue Line (Corridor III)",
        "colour": "blue",
        "is_interchange": false
      }
    },
    {
      "type": "Feature",
      "geometry": {
        "type": "Point",
        "coordinates": [
          78.5682,
          17.3898
        ]
      },
      "properties": {
        "station_name": "Nagole",
        "line": "Blue Line (Corridor III)",
        "colour": "blue",
        "is_interchange": false
      }
    },
    {
      "type": "Feature",
      "geometry": {
        "type": "Point",
        "coordinates": [
          78.4985,
          17.4485
        ]
      },
      "properties": {
        "station_name": "JBS Parade Ground",
        "line": "Green Line (Corridor II)",
        "colour": "green",
        "is_interchange": true
      }
    },
    {
      "type": "Feature",
      "geometry": {
        "type": "Point",
        "coordinates": [
          78.4998,
          17.4392
        ]
      },
      "properties": {
        "station_name": "Secunderabad West",
        "line": "Green Line (Corridor II)",
        "colour": "green",
        "is_interchange": false
      }
    },
    {
      "type": "Feature",
      "geometry": {
        "type": "Point",
        "coordinates": [
          78.5042,
          17.4248
        ]
      },
      "properties": {
        "station_name": "Gandhi Hospital",
        "line": "Green Line (Corridor II)",
        "colour": "green",
        "is_interchange": false
      }
    },
    {
      "type": "Feature",
      "geometry": {
        "type": "Point",
        "coordinates": [
          78.5055,
          17.4185
        ]
      },
      "properties": {
        "station_name": "Musheerabad",
        "line": "Green Line (Corridor II)",
        "colour": "green",
        "is_interchange": false
      }
    },
    {
      "type": "Feature",
      "geometry": {
        "type": "Point",
        "coordinates": [
          78.4995,
          17.4082
        ]
      },
      "properties": {
        "station_name": "RTC X Roads",
        "line": "Green Line (Corridor II)",
        "colour": "green",
        "is_interchange": false
      }
    },
    {
      "type": "Feature",
      "geometry": {
        "type": "Point",
        "coordinates": [
          78.4952,
          17.4002
        ]
      },
      "properties": {
        "station_name": "Chikkadpally",
        "line": "Green Line (Corridor II)",
        "colour": "green",
        "is_interchange": false
      }
    },
    {
      "type": "Feature",
      "geometry": {
        "type": "Point",
        "coordinates": [
          78.4912,
          17.3942
        ]
      },
      "properties": {
        "station_name": "Narayanguda",
        "line": "Green Line (Corridor II)",
        "colour": "green",
        "is_interchange": false
      }
    },
    {
      "type": "Feature",
      "geometry": {
        "type": "Point",
        "coordinates": [
          78.4882,
          17.3862
        ]
      },
      "properties": {
        "station_name": "Sultan Bazar",
        "line": "Green Line (Corridor II)",
        "colour": "green",
        "is_interchange": false
      }
    },
    {
      "type": "Feature",
      "geometry": {
        "type": "Point",
        "coordinates": [
          78.4848,
          17.3785
        ]
      },
      "properties": {
        "station_name": "MGBS",
        "line": "Green Line (Corridor II)",
        "colour": "green",
        "is_interchange": true
      }
    }
  ]
}