{
  "type":"FeatureCollection",
  "features":[
    {
      "type":"Feature",
      "properties":{
        "shape_id":"CMRL_1_0",
        "source":"CMRL GTFS shapes.txt"
      },
      "geometry":{
        "type":"LineString",
        "coordinates":[
          [
            80.308994,
            13.183971
          ],
          [
            80.307344,
            13.17929
          ],
          [
            80.305226,
            13.171803
          ],
          [
            80.303538,
            13.165144
          ],
          [
            80.30244,
            13.160215
          ],
          [
            80.300927,
            13.15452
          ],
          [
            80.2994,
            13.148703
          ],
          [
            80.296063,
            13.142521
          ],
          [
            80.29231,
            13.135847
          ],
          [
            80.288949,
            13.128798
          ],
          [
            80.277531,
            13.108962
          ],
          [
            80.268435,
            13.088011
          ],
          [
            80.27391,
            13.081767
          ],
          [
            80.272086,
            13.069338
          ],
          [
            80.26625,
            13.064762
          ],
          [
            80.26153,
            13.057176
          ],
          [
            80.254562,
            13.0457
          ],
          [
            80.246419,
            13.0368
          ],
          [
            80.241073,
            13.030976
          ],
          [
            80.231981,
            13.021404
          ],
          [
            80.223243,
            13.012085
          ],
          [
            80.218687,
            13.008602
          ],
          [
            80.206136,
            13.004256
          ],
          [
            80.1996,
            12.995455
          ],
          [
            80.176479,
            12.987673
          ],
          [
            80.164203,
            12.980809
          ]
        ]
      }
    },
    {
      "type":"Feature",
      "properties":{
        "shape_id":"CMRL_1_1",
        "source":"CMRL GTFS shapes.txt"
      },
      "geometry":{
        "type":"LineString",
        "coordinates":[
          [
            80.164203,
            12.980809
          ],
          [
            80.176479,
            12.987673
          ],
          [
            80.1996,
            12.995455
          ],
          [
            80.206136,
            13.004256
          ],
          [
            80.218687,
            13.008602
          ],
          [
            80.223243,
            13.012085
          ],
          [
            80.231981,
            13.021404
          ],
          [
            80.241073,
            13.030976
          ],
          [
            80.246419,
            13.0368
          ],
          [
            80.254562,
            13.0457
          ],
          [
            80.26153,
            13.057176
          ],
          [
            80.26625,
            13.064762
          ],
          [
            80.272086,
            13.069338
          ],
          [
            80.27391,
            13.081767
          ],
          [
            80.268435,
            13.088011
          ],
          [
            80.277531,
            13.108962
          ],
          [
            80.288949,
            13.128798
          ],
          [
            80.29231,
            13.135847
          ],
          [
            80.296063,
            13.142521
          ],
          [
            80.2994,
            13.148703
          ],
          [
            80.300927,
            13.15452
          ],
          [
            80.30244,
            13.160215
          ],
          [
            80.303538,
            13.165144
          ],
          [
            80.305226,
            13.171803
          ],
          [
            80.307344,
            13.17929
          ],
          [
            80.308994,
            13.183971
          ]
        ]
      }
    },
    {
      "type":"Feature",
      "properties":{
        "shape_id":"CMRL_2_0",
        "source":"CMRL GTFS shapes.txt"
      },
      "geometry":{
        "type":"LineString",
        "coordinates":[
          [
            80.27391,
            13.081767
          ],
          [
            80.263054,
            13.080289
          ],
          [
            80.250473,
            13.078784
          ],
          [
            80.242421,
            13.074342
          ],
          [
            80.235973,
            13.070686
          ],
          [
            80.229087,
            13.066519
          ],
          [
            80.220368,
            13.057808
          ],
          [
            80.211329,
            13.051308
          ],
          [
            80.202075,
            13.044983
          ],
          [
            80.197363,
            13.035483
          ],
          [
            80.195242,
            13.028636
          ],
          [
            80.2041,
            13.0685
          ],
          [
            80.212,
            13.0616
          ],
          [
            80.2153,
            13.0539
          ],
          [
            80.209551,
            13.037265
          ],
          [
            80.205302,
            13.017128
          ],
          [
            80.206136,
            13.004256
          ],
          [
            80.197151,
            13.000739
          ]
        ]
      }
    },
    {
      "type":"Feature",
      "properties":{
        "shape_id":"CMRL_2_1",
        "source":"CMRL GTFS shapes.txt"
      },
      "geometry":{
        "type":"LineString",
        "coordinates":[
          [
            80.197151,
            13.000739
          ],
          [
            80.206136,
            13.004256
          ],
          [
            80.205302,
            13.017128
          ],
          [
            80.209551,
            13.037265
          ],
          [
            80.2153,
            13.0539
          ],
          [
            80.212,
            13.0616
          ],
          [
            80.2041,
            13.0685
          ],
          [
            80.195242,
            13.028636
          ],
          [
            80.197363,
            13.035483
          ],
          [
            80.202075,
            13.044983
          ],
          [
            80.211329,
            13.051308
          ],
          [
            80.220368,
            13.057808
          ],
          [
            80.229087,
            13.066519
          ],
          [
            80.235973,
            13.070686
          ],
          [
            80.242421,
            13.074342
          ],
          [
            80.250473,
            13.078784
          ],
          [
            80.263054,
            13.080289
          ],
          [
            80.27391,
            13.081767
          ]
        ]
      }
    }
  ]
}
