{
  "type": "FeatureCollection",
  "features": [
    {
      "type": "Feature",
      "id": "zone-rajajinagar",
      "properties": {
        "id": "zone-rajajinagar",
        "name": "Rajajinagar",
        "role": "West Industrial & Commercial Hub",
        "tier": "Network Beneficiary",
        "tierCode": "network",
        "color": "#c084fc",
        "benefitScore": 91,
        "timeSavedMin": 42,
        "commuteRoad": "68 mins",
        "commuteMetro": "26 mins",
        "commuterCount": "118,000",
        "modalShift": "39.2%",
        "howBenefited": "Green Line interchange via RV Road connects directly to Silk Board viaduct, bypassing severe central city gridlock and saving 42 mins each way to the tech corridor.",
        "badgeLabel": "Rajajinagar · -42m",
        "centroid": [77.5535, 12.9975]
      },
      "geometry": {
        "type": "Polygon",
        "coordinates": [[
          [77.5385, 12.9810],
          [77.5392, 12.9890],
          [77.5405, 12.9965],
          [77.5420, 13.0035],
          [77.5450, 13.0110],
          [77.5490, 13.0160],
          [77.5560, 13.0185],
          [77.5630, 13.0150],
          [77.5680, 13.0105],
          [77.5695, 13.0040],
          [77.5685, 12.9950],
          [77.5670, 12.9880],
          [77.5620, 12.9820],
          [77.5520, 12.9795],
          [77.5440, 12.9798],
          [77.5385, 12.9810]
        ]]
      }
    },
    {
      "type": "Feature",
      "id": "zone-indiranagar",
      "properties": {
        "id": "zone-indiranagar",
        "name": "Indiranagar",
        "role": "East-Central Tech & Residential Hub",
        "tier": "Interchange Beneficiary",
        "tierCode": "interchange",
        "color": "#38bdf8",
        "benefitScore": 93,
        "timeSavedMin": 38,
        "commuteRoad": "54 mins",
        "commuteMetro": "16 mins",
        "commuterCount": "145,000",
        "modalShift": "44.5%",
        "howBenefited": "Direct interchange from Purple Line via KR Puram / Silk Board feeder, eliminating the choke points along Old Airport Road and 100 Feet Road.",
        "badgeLabel": "Indiranagar · -38m",
        "centroid": [77.6405, 12.9735]
      },
      "geometry": {
        "type": "Polygon",
        "coordinates": [[
          [77.6255, 12.9795],
          [77.6320, 12.9805],
          [77.6400, 12.9815],
          [77.6495, 12.9820],
          [77.6560, 12.9815],
          [77.6565, 12.9750],
          [77.6550, 12.9670],
          [77.6525, 12.9610],
          [77.6460, 12.9595],
          [77.6380, 12.9610],
          [77.6310, 12.9625],
          [77.6265, 12.9660],
          [77.6250, 12.9725],
          [77.6255, 12.9795]
        ]]
      }
    },
    {
      "type": "Feature",
      "id": "zone-bellandur",
      "properties": {
        "id": "zone-bellandur",
        "name": "Bellandur & ORR",
        "role": "Primary Corridor Tech Spine",
        "tier": "Direct Corridor Catchment",
        "tierCode": "direct",
        "color": "#0ab1ba",
        "benefitScore": 98,
        "timeSavedMin": 44,
        "commuteRoad": "58 mins",
        "commuteMetro": "14 mins",
        "commuterCount": "342,800",
        "modalShift": "52.8%",
        "howBenefited": "The primary viaduct alignment directly serves 84 tech parks (Ecospace, Cessna, Prestige), relieving 18,450 PPHPD and cutting daily travel time by 44 mins.",
        "badgeLabel": "Bellandur · -44m",
        "centroid": [77.6815, 12.9295]
      },
      "geometry": {
        "type": "Polygon",
        "coordinates": [[
          [77.6625, 12.9255],
          [77.6660, 12.9340],
          [77.6720, 12.9385],
          [77.6800, 12.9410],
          [77.6890, 12.9415],
          [77.6960, 12.9390],
          [77.7020, 12.9345],
          [77.7045, 12.9265],
          [77.7015, 12.9195],
          [77.6940, 12.9165],
          [77.6840, 12.9175],
          [77.6740, 12.9190],
          [77.6660, 12.9215],
          [77.6625, 12.9255]
        ]]
      }
    },
    {
      "type": "Feature",
      "id": "zone-hsr",
      "properties": {
        "id": "zone-hsr",
        "name": "HSR Layout",
        "role": "Surrounding Catchment Buffer Area",
        "tier": "Direct Catchment",
        "tierCode": "direct",
        "color": "#0ab1ba",
        "benefitScore": 96,
        "timeSavedMin": 32,
        "commuteRoad": "42 mins",
        "commuteMetro": "10 mins",
        "commuterCount": "195,000",
        "modalShift": "48.0%",
        "howBenefited": "Located immediately in the surrounding catchment of the viaduct; residents get walkable access to 14th Main & Agara stations, slashing private vehicle use by 48%.",
        "badgeLabel": "HSR Layout · -32m",
        "centroid": [77.6435, 12.9115]
      },
      "geometry": {
        "type": "Polygon",
        "coordinates": [[
          [77.6245, 12.9175],
          [77.6330, 12.9210],
          [77.6425, 12.9245],
          [77.6520, 12.9270],
          [77.6590, 12.9260],
          [77.6630, 12.9220],
          [77.6620, 12.9140],
          [77.6590, 12.9060],
          [77.6540, 12.8995],
          [77.6470, 12.8970],
          [77.6380, 12.8990],
          [77.6310, 12.9055],
          [77.6265, 12.9115],
          [77.6245, 12.9175]
        ]]
      }
    },
    {
      "type": "Feature",
      "id": "zone-koramangala",
      "properties": {
        "id": "zone-koramangala",
        "name": "Koramangala",
        "role": "Surrounding Catchment Buffer Area",
        "tier": "Surrounding Feeder Hub",
        "tierCode": "interchange",
        "color": "#38bdf8",
        "benefitScore": 92,
        "timeSavedMin": 30,
        "commuteRoad": "46 mins",
        "commuteMetro": "16 mins",
        "commuterCount": "168,000",
        "modalShift": "41.6%",
        "howBenefited": "Surrounding area immediately adjacent to Silk Board; traffic that previously choked Sony World signal transfers to metro viaduct, saving 30 mins.",
        "badgeLabel": "Koramangala · -30m",
        "centroid": [77.6225, 12.9340]
      },
      "geometry": {
        "type": "Polygon",
        "coordinates": [[
          [77.6085, 12.9385],
          [77.6150, 12.9465],
          [77.6240, 12.9485],
          [77.6325, 12.9470],
          [77.6375, 12.9410],
          [77.6385, 12.9340],
          [77.6360, 12.9270],
          [77.6315, 12.9230],
          [77.6240, 12.9240],
          [77.6175, 12.9265],
          [77.6110, 12.9310],
          [77.6085, 12.9385]
        ]]
      }
    },
    {
      "type": "Feature",
      "id": "zone-btm",
      "properties": {
        "id": "zone-btm",
        "name": "BTM & Jayanagar",
        "role": "Surrounding Catchment Buffer Area",
        "tier": "Surrounding Feeder Hub",
        "tierCode": "interchange",
        "color": "#38bdf8",
        "benefitScore": 90,
        "timeSavedMin": 34,
        "commuteRoad": "48 mins",
        "commuteMetro": "14 mins",
        "commuterCount": "152,000",
        "modalShift": "43.1%",
        "howBenefited": "Feeds directly into Silk Board junction from Bannerghatta & Jayanagar corridors; eliminates severe bottlenecks at Udupi Garden & Silk Board surface crossings.",
        "badgeLabel": "BTM / Jayanagar · -34m",
        "centroid": [77.6050, 12.9160]
      },
      "geometry": {
        "type": "Polygon",
        "coordinates": [[
          [77.5960, 12.9185],
          [77.6030, 12.9250],
          [77.6120, 12.9245],
          [77.6200, 12.9215],
          [77.6235, 12.9175],
          [77.6180, 12.9120],
          [77.6110, 12.9080],
          [77.6020, 12.9065],
          [77.5965, 12.9110],
          [77.5960, 12.9185]
        ]]
      }
    },
    {
      "type": "Feature",
      "id": "zone-marathahalli",
      "properties": {
        "id": "zone-marathahalli",
        "name": "Marathahalli",
        "role": "Surrounding Catchment Buffer Area",
        "tier": "Surrounding Feeder Hub",
        "tierCode": "network",
        "color": "#c084fc",
        "benefitScore": 89,
        "timeSavedMin": 36,
        "commuteRoad": "52 mins",
        "commuteMetro": "16 mins",
        "commuterCount": "132,000",
        "modalShift": "40.8%",
        "howBenefited": "Acts as the eastern convergence node connecting Whitefield commuters to the Bellandur tech corridor viaduct.",
        "badgeLabel": "Marathahalli · -36m",
        "centroid": [77.6980, 12.9550]
      },
      "geometry": {
        "type": "Polygon",
        "coordinates": [[
          [77.6780, 12.9520],
          [77.6870, 12.9570],
          [77.6950, 12.9610],
          [77.7050, 12.9630],
          [77.7120, 12.9585],
          [77.7140, 12.9510],
          [77.7085, 12.9450],
          [77.7010, 12.9440],
          [77.6910, 12.9465],
          [77.6830, 12.9490],
          [77.6780, 12.9520]
        ]]
      }
    }
  ]
}
