{
  "type": "FeatureCollection",
  "name": "bengaluru_lakes_and_wetlands",
  "features": [
    {
      "type": "Feature",
      "properties": {
        "lake_id": "LAK_001",
        "lake_name": "Bellandur Amanikere",
        "water_spread_area_sqkm": 3.65,
        "ktfd_buffer_meters": 30,
        "flood_vulnerability": "HIGH"
      },
      "geometry": {
        "type": "Polygon",
        "coordinates": [
          [
            [77.6580, 12.9320],
            [77.6680, 12.9340],
            [77.6720, 12.9410],
            [77.6610, 12.9390],
            [77.6580, 12.9320]
          ]
        ]
      }
    },
    {
      "type": "Feature",
      "properties": {
        "lake_id": "LAK_002",
        "lake_name": "Agara Lake",
        "water_spread_area_sqkm": 0.58,
        "ktfd_buffer_meters": 30,
        "flood_vulnerability": "MODERATE"
      },
      "geometry": {
        "type": "Polygon",
        "coordinates": [
          [
            [77.6380, 12.9210],
            [77.6440, 12.9230],
            [77.6460, 12.9280],
            [77.6400, 12.9270],
            [77.6380, 12.9210]
          ]
        ]
      }
    }
  ]
}
