{
  "type": "FeatureCollection",
  "name": "wetlands_lakes_stormwater_ktfd_2026",
  "features": [
    {
      "type": "Feature",
      "properties": {
        "lake_id": "BLR_LAKE_150",
        "lake_name": "Bellandur Amanikere",
        "ktfd_buffer_m": 30,
        "catchment_area_sqkm": 3.65,
        "flood_risk": "HIGH"
      },
      "geometry": {
        "type": "Polygon",
        "coordinates": [
          [
            [77.6580, 12.9320],
            [77.6680, 12.9340],
            [77.6720, 12.9410],
            [77.6610, 12.9390],
            [77.6580, 12.9320]
          ]
        ]
      }
    },
    {
      "type": "Feature",
      "properties": {
        "lake_id": "BLR_LAKE_174",
        "lake_name": "Agara Lake",
        "ktfd_buffer_m": 30,
        "catchment_area_sqkm": 0.58,
        "flood_risk": "MODERATE"
      },
      "geometry": {
        "type": "Polygon",
        "coordinates": [
          [
            [77.6380, 12.9210],
            [77.6440, 12.9230],
            [77.6460, 12.9280],
            [77.6400, 12.9270],
            [77.6380, 12.9210]
          ]
        ]
      }
    },
    {
      "type": "Feature",
      "properties": {
        "lake_id": "BLR_LAKE_019",
        "lake_name": "Hebbal Lake (North Bengaluru - Far Outside Buffer)",
        "ktfd_buffer_m": 30,
        "catchment_area_sqkm": 1.42,
        "flood_risk": "LOW"
      },
      "geometry": {
        "type": "Polygon",
        "coordinates": [
          [
            [77.5850, 13.0410],
            [77.5930, 13.0430],
            [77.5950, 13.0480],
            [77.5870, 13.0470],
            [77.5850, 13.0410]
          ]
        ]
      }
    }
  ]
}
