{"type":"FeatureCollection","features":[{"type":"Feature","id":"AGPP","properties":{"source_id":"AGPP","station_name":"Attiguppe","station_code":"AGPP","source_name":"bmrcl_gtfs_unofficial"},"geometry":{"type":"Point","coordinates":[77.53358,12.961893]}},{"type":"Feature","id":"BTML","properties":{"source_id":"BTML","station_name":"BTM Layout","station_code":"BTML","source_name":"bmrcl_gtfs_unofficial"},"geometry":{"type":"Point","coordinates":[77.608116,12.916588]}},{"type":"Feature","id":"BYPH","properties":{"source_id":"BYPH","station_name":"Baiyappanahalli","station_code":"BYPH","source_name":"bmrcl_gtfs_unofficial"},"geometry":{"type":"Point","coordinates":[77.65236,12.990759]}},{"type":"Feature","id":"BSNK","properties":{"source_id":"BSNK","station_name":"Banashankari","station_code":"BSNK","source_name":"bmrcl_gtfs_unofficial"},"geometry":{"type":"Point","coordinates":[77.5736,12.915221]}},{"type":"Feature","id":"JTPM","properties":{"source_id":"JTPM","station_name":"Benniganahalli","station_code":"JTPM","source_name":"bmrcl_gtfs_unofficial"},"geometry":{"type":"Point","coordinates":[77.668465,12.996516]}},{"type":"Feature","id":"HOSR","properties":{"source_id":"HOSR","station_name":"Beratena Agrahara","station_code":"HOSR","source_name":"bmrcl_gtfs_unofficial"},"geometry":{"type":"Point","coordinates":[77.65786,12.863867]}},{"type":"Feature","id":"HBGI","properties":{"source_id":"HBGI","station_name":"Biocon Hebbagodi","station_code":"HBGI","source_name":"bmrcl_gtfs_unofficial"},"geometry":{"type":"Point","coordinates":[77.68137,12.829033]}},{"type":"Feature","id":"HSRL","properties":{"source_id":"HSRL","station_name":"Bommanahalli","station_code":"HSRL","source_name":"bmrcl_gtfs_unofficial"},"geometry":{"type":"Point","coordinates":[77.62648,12.910616]}},{"type":"Feature","id":"SBJT","properties":{"source_id":"SBJT","station_name":"Central Silk Board","station_code":"SBJT","source_name":"bmrcl_gtfs_unofficial"},"geometry":{"type":"Point","coordinates":[77.62057,12.916582]}},{"type":"Feature","id":"CLGA","properties":{"source_id":"CLGA","station_name":"Challaghatta","station_code":"CLGA","source_name":"bmrcl_gtfs_unofficial"},"geometry":{"type":"Point","coordinates":[77.46129,12.897354]}},{"type":"Feature","id":"CKPE","properties":{"source_id":"CKPE","station_name":"Chickpete","station_code":"CKPE","source_name":"bmrcl_gtfs_unofficial"},"geometry":{"type":"Point","coordinates":[77.574554,12.966897]}},{"type":"Feature","id":"JIDL","properties":{"source_id":"JIDL","station_name":"Chikkabidarakallu","station_code":"JIDL","source_name":"bmrcl_gtfs_unofficial"},"geometry":{"type":"Point","coordinates":[77.487915,13.052362]}},{"type":"Feature","id":"CBPK","properties":{"source_id":"CBPK","station_name":"Cubbon Park","station_code":"CBPK","source_name":"bmrcl_gtfs_unofficial"},"geometry":{"type":"Point","coordinates":[77.59757,12.980958]}},{"type":"Feature","id":"DSH","properties":{"source_id":"DSH","station_name":"Dasarahalli","station_code":"DSH","source_name":"bmrcl_gtfs_unofficial"},"geometry":{"type":"Point","coordinates":[77.51255,13.043261]}},{"type":"Feature","id":"DJNR","properties":{"source_id":"DJNR","station_name":"Deepanjali Nagar","station_code":"DJNR","source_name":"bmrcl_gtfs_unofficial"},"geometry":{"type":"Point","coordinates":[77.53701,12.952058]}},{"type":"Feature","id":"BMSD","properties":{"source_id":"BMSD","station_name":"Delta Electronics Bommasandra","station_code":"BMSD","source_name":"bmrcl_gtfs_unofficial"},"geometry":{"type":"Point","coordinates":[77.68835,12.819394]}},{"type":"Feature","id":"KLPK","properties":{"source_id":"KLPK","station_name":"Doddakallasandra","station_code":"KLPK","source_name":"bmrcl_gtfs_unofficial"},"geometry":{"type":"Point","coordinates":[77.55276,12.884643]}},{"type":"Feature","id":"VDSA","properties":{"source_id":"VDSA","station_name":"Dr. B. R. Ambedkar Station, Vidhana Soudha","station_code":"VDSA","source_name":"bmrcl_gtfs_unofficial"},"geometry":{"type":"Point","coordinates":[77.59164,12.978742]}},{"type":"Feature","id":"ETCT","properties":{"source_id":"ETCT","station_name":"Electronic City","station_code":"ETCT","source_name":"bmrcl_gtfs_unofficial"},"geometry":{"type":"Point","coordinates":[77.66352,12.856505]}},{"type":"Feature","id":"GDCP","properties":{"source_id":"GDCP","station_name":"Garudacharpalya","station_code":"GDCP","source_name":"bmrcl_gtfs_unofficial"},"geometry":{"type":"Point","coordinates":[77.703674,12.99345]}},{"type":"Feature","id":"YPI","properties":{"source_id":"YPI","station_name":"Goraguntepalya","station_code":"YPI","source_name":"bmrcl_gtfs_unofficial"},"geometry":{"type":"Point","coordinates":[77.54085,13.028332]}},{"type":"Feature","id":"HLRU","properties":{"source_id":"HLRU","station_name":"Halasuru","station_code":"HLRU","source_name":"bmrcl_gtfs_unofficial"},"geometry":{"type":"Point","coordinates":[77.626686,12.976499]}},{"type":"Feature","id":"OFDC","properties":{"source_id":"OFDC","station_name":"Hongasandra","station_code":"OFDC","source_name":"bmrcl_gtfs_unofficial"},"geometry":{"type":"Point","coordinates":[77.63199,12.901695]}},{"type":"Feature","id":"DKIA","properties":{"source_id":"DKIA","station_name":"Hoodi","station_code":"DKIA","source_name":"bmrcl_gtfs_unofficial"},"geometry":{"type":"Point","coordinates":[77.71133,12.988803]}},{"type":"Feature","id":"UWVL","properties":{"source_id":"UWVL","station_name":"Hopefarm Channasandra","station_code":"UWVL","source_name":"bmrcl_gtfs_unofficial"},"geometry":{"type":"Point","coordinates":[77.7538,12.987343]}},{"type":"Feature","id":"BSRD","properties":{"source_id":"BSRD","station_name":"Hosa Road","station_code":"BSRD","source_name":"bmrcl_gtfs_unofficial"},"geometry":{"type":"Point","coordinates":[77.65245,12.870749]}},{"type":"Feature","id":"HSKR","properties":{"source_id":"HSKR","station_name":"Huskur Road","station_code":"HSKR","source_name":"bmrcl_gtfs_unofficial"},"geometry":{"type":"Point","coordinates":[77.677376,12.839157]}},{"type":"Feature","id":"IDN","properties":{"source_id":"IDN","station_name":"Indiranagar","station_code":"IDN","source_name":"bmrcl_gtfs_unofficial"},"geometry":{"type":"Point","coordinates":[77.638664,12.978333]}},{"type":"Feature","id":"ECTN","properties":{"source_id":"ECTN","station_name":"Infosys Foundation Konappana Agrahara","station_code":"ECTN","source_name":"bmrcl_gtfs_unofficial"},"geometry":{"type":"Point","coordinates":[77.671165,12.846413]}},{"type":"Feature","id":"JLHL","properties":{"source_id":"JLHL","station_name":"Jalahalli","station_code":"JLHL","source_name":"bmrcl_gtfs_unofficial"},"geometry":{"type":"Point","coordinates":[77.51974,13.03941]}},{"type":"Feature","id":"JPN","properties":{"source_id":"JPN","station_name":"Jaya Prakash Nagar","station_code":"JPN","source_name":"bmrcl_gtfs_unofficial"},"geometry":{"type":"Point","coordinates":[77.57313,12.907475]}},{"type":"Feature","id":"JDHP","properties":{"source_id":"JDHP","station_name":"Jayadeva Hospital","station_code":"JDHP","source_name":"bmrcl_gtfs_unofficial"},"geometry":{"type":"Point","coordinates":[77.59997,12.916731]}},{"type":"Feature","id":"JYN","properties":{"source_id":"JYN","station_name":"Jayanagar","station_code":"JYN","source_name":"bmrcl_gtfs_unofficial"},"geometry":{"type":"Point","coordinates":[77.58015,12.929507]}},{"type":"Feature","id":"BGUC","properties":{"source_id":"BGUC","station_name":"Jnanabharathi","station_code":"BGUC","source_name":"bmrcl_gtfs_unofficial"},"geometry":{"type":"Point","coordinates":[77.512405,12.935436]}},{"type":"Feature","id":"KDGD","properties":{"source_id":"KDGD","station_name":"Kadugodi Tree Park","station_code":"KDGD","source_name":"bmrcl_gtfs_unofficial"},"geometry":{"type":"Point","coordinates":[77.74701,12.98565]}},{"type":"Feature","id":"KGIT","properties":{"source_id":"KGIT","station_name":"Kengeri","station_code":"KGIT","source_name":"bmrcl_gtfs_unofficial"},"geometry":{"type":"Point","coordinates":[77.47658,12.90791]}},{"type":"Feature","id":"MLSD","properties":{"source_id":"MLSD","station_name":"Kengeri Bus Terminal","station_code":"MLSD","source_name":"bmrcl_gtfs_unofficial"},"geometry":{"type":"Point","coordinates":[77.487854,12.914689]}},{"type":"Feature","id":"APRC","properties":{"source_id":"APRC","station_name":"Konanakunte Cross","station_code":"APRC","source_name":"bmrcl_gtfs_unofficial"},"geometry":{"type":"Point","coordinates":[77.56267,12.888967]}},{"type":"Feature","id":"BRCS","properties":{"source_id":"BRCS","station_name":"Krantivira Sangolli Rayanna Railway Station","station_code":"BRCS","source_name":"bmrcl_gtfs_unofficial"},"geometry":{"type":"Point","coordinates":[77.56538,12.975877]}},{"type":"Feature","id":"KRMT","properties":{"source_id":"KRMT","station_name":"Krishna Rajendra Market","station_code":"KRMT","source_name":"bmrcl_gtfs_unofficial"},"geometry":{"type":"Point","coordinates":[77.57466,12.960879]}},{"type":"Feature","id":"KRAM","properties":{"source_id":"KRAM","station_name":"Krishnarajapura","station_code":"KRAM","source_name":"bmrcl_gtfs_unofficial"},"geometry":{"type":"Point","coordinates":[77.67767,12.999902]}},{"type":"Feature","id":"MSRN","properties":{"source_id":"MSRN","station_name":"Kudlu Gate","station_code":"MSRN","source_name":"bmrcl_gtfs_unofficial"},"geometry":{"type":"Point","coordinates":[77.63921,12.889926]}},{"type":"Feature","id":"KDNH","properties":{"source_id":"KDNH","station_name":"Kundalahalli","station_code":"KDNH","source_name":"bmrcl_gtfs_unofficial"},"geometry":{"type":"Point","coordinates":[77.71556,12.977594]}},{"type":"Feature","id":"LBGH","properties":{"source_id":"LBGH","station_name":"Lalbagh","station_code":"LBGH","source_name":"bmrcl_gtfs_unofficial"},"geometry":{"type":"Point","coordinates":[77.58002,12.946526]}},{"type":"Feature","id":"BIET","properties":{"source_id":"BIET","station_name":"Madavara","station_code":"BIET","source_name":"bmrcl_gtfs_unofficial"},"geometry":{"type":"Point","coordinates":[77.47281,13.057421]}},{"type":"Feature","id":"MIRD","properties":{"source_id":"MIRD","station_name":"Magadi Road","station_code":"MIRD","source_name":"bmrcl_gtfs_unofficial"},"geometry":{"type":"Point","coordinates":[77.55535,12.975632]}},{"type":"Feature","id":"KVPR","properties":{"source_id":"KVPR","station_name":"Mahakavi Kuvempu Road","station_code":"KVPR","source_name":"bmrcl_gtfs_unofficial"},"geometry":{"type":"Point","coordinates":[77.5569,12.99853]}},{"type":"Feature","id":"MHLI","properties":{"source_id":"MHLI","station_name":"Mahalakshmi","station_code":"MHLI","source_name":"bmrcl_gtfs_unofficial"},"geometry":{"type":"Point","coordinates":[77.548805,13.008047]}},{"type":"Feature","id":"MAGR","properties":{"source_id":"MAGR","station_name":"Mahatma Gandhi Road","station_code":"MAGR","source_name":"bmrcl_gtfs_unofficial"},"geometry":{"type":"Point","coordinates":[77.60679,12.975526]}},{"type":"Feature","id":"MNJN","properties":{"source_id":"MNJN","station_name":"Manjunathanagara","station_code":"MNJN","source_name":"bmrcl_gtfs_unofficial"},"geometry":{"type":"Point","coordinates":[77.494446,13.05009]}},{"type":"Feature","id":"SPGD","properties":{"source_id":"SPGD","station_name":"Mantri Square Sampige Road","station_code":"SPGD","source_name":"bmrcl_gtfs_unofficial"},"geometry":{"type":"Point","coordinates":[77.57073,12.990463]}},{"type":"Feature","id":"MYRD","properties":{"source_id":"MYRD","station_name":"Mysore Road","station_code":"MYRD","source_name":"bmrcl_gtfs_unofficial"},"geometry":{"type":"Point","coordinates":[77.53016,12.946718]}},{"type":"Feature","id":"KGWA","properties":{"source_id":"KGWA","station_name":"Nadaprabhu Kempegowda Station, Majestic","station_code":"KGWA","source_name":"bmrcl_gtfs_unofficial"},"geometry":{"type":"Point","coordinates":[77.572876,12.975708]}},{"type":"Feature","id":"NGSA","properties":{"source_id":"NGSA","station_name":"Nagasandra","station_code":"NGSA","source_name":"bmrcl_gtfs_unofficial"},"geometry":{"type":"Point","coordinates":[77.500145,13.047954]}},{"type":"Feature","id":"VDHP","properties":{"source_id":"VDHP","station_name":"Nallurahalli","station_code":"VDHP","source_name":"bmrcl_gtfs_unofficial"},"geometry":{"type":"Point","coordinates":[77.724884,12.976641]}},{"type":"Feature","id":"NLC","properties":{"source_id":"NLC","station_name":"National College","station_code":"NLC","source_name":"bmrcl_gtfs_unofficial"},"geometry":{"type":"Point","coordinates":[77.57369,12.950527]}},{"type":"Feature","id":"NYHM","properties":{"source_id":"NYHM","station_name":"Pantharapalya - Nayandahalli","station_code":"NYHM","source_name":"bmrcl_gtfs_unofficial"},"geometry":{"type":"Point","coordinates":[77.525116,12.941671]}},{"type":"Feature","id":"PATG","properties":{"source_id":"PATG","station_name":"Pattanagere","station_code":"PATG","source_name":"bmrcl_gtfs_unofficial"},"geometry":{"type":"Point","coordinates":[77.49835,12.92425]}},{"type":"Feature","id":"ITPL","properties":{"source_id":"ITPL","station_name":"Pattandur Agrahara","station_code":"ITPL","source_name":"bmrcl_gtfs_unofficial"},"geometry":{"type":"Point","coordinates":[77.73777,12.987639]}},{"type":"Feature","id":"PEYA","properties":{"source_id":"PEYA","station_name":"Peenya","station_code":"PEYA","source_name":"bmrcl_gtfs_unofficial"},"geometry":{"type":"Point","coordinates":[77.5332,13.033019]}},{"type":"Feature","id":"PYID","properties":{"source_id":"PYID","station_name":"Peenya Industry","station_code":"PYID","source_name":"bmrcl_gtfs_unofficial"},"geometry":{"type":"Point","coordinates":[77.52549,13.036318]}},{"type":"Feature","id":"RGDT","properties":{"source_id":"RGDT","station_name":"Ragigudda","station_code":"RGDT","source_name":"bmrcl_gtfs_unofficial"},"geometry":{"type":"Point","coordinates":[77.5883,12.917081]}},{"type":"Feature","id":"RJNR","properties":{"source_id":"RJNR","station_name":"Rajajinagar","station_code":"RJNR","source_name":"bmrcl_gtfs_unofficial"},"geometry":{"type":"Point","coordinates":[77.54966,13.000525]}},{"type":"Feature","id":"RRRN","properties":{"source_id":"RRRN","station_name":"Rajarajeshwari Nagar","station_code":"RRRN","source_name":"bmrcl_gtfs_unofficial"},"geometry":{"type":"Point","coordinates":[77.51968,12.9366]}},{"type":"Feature","id":"RVR","properties":{"source_id":"RVR","station_name":"Rashtreeya Vidyalaya Road","station_code":"RVR","source_name":"bmrcl_gtfs_unofficial"},"geometry":{"type":"Point","coordinates":[77.5802,12.921581]}},{"type":"Feature","id":"SSFY","properties":{"source_id":"SSFY","station_name":"Sandal Soap Factory","station_code":"SSFY","source_name":"bmrcl_gtfs_unofficial"},"geometry":{"type":"Point","coordinates":[77.553986,13.014654]}},{"type":"Feature","id":"VWIA","properties":{"source_id":"VWIA","station_name":"Seetharampalya","station_code":"VWIA","source_name":"bmrcl_gtfs_unofficial"},"geometry":{"type":"Point","coordinates":[77.708786,12.980856]}},{"type":"Feature","id":"APTS","properties":{"source_id":"APTS","station_name":"Silk Institute","station_code":"APTS","source_name":"bmrcl_gtfs_unofficial"},"geometry":{"type":"Point","coordinates":[77.52995,12.86173]}},{"type":"Feature","id":"CKBR","properties":{"source_id":"CKBR","station_name":"Singasandra","station_code":"CKBR","source_name":"bmrcl_gtfs_unofficial"},"geometry":{"type":"Point","coordinates":[77.644844,12.880818]}},{"type":"Feature","id":"MDVP","properties":{"source_id":"MDVP","station_name":"Singayyanapalya","station_code":"MDVP","source_name":"bmrcl_gtfs_unofficial"},"geometry":{"type":"Point","coordinates":[77.69272,12.996545]}},{"type":"Feature","id":"VSWA","properties":{"source_id":"VSWA","station_name":"Sir M. Visvesvaraya Stn., Central College","station_code":"VSWA","source_name":"bmrcl_gtfs_unofficial"},"geometry":{"type":"Point","coordinates":[77.58422,12.97452]}},{"type":"Feature","id":"SECE","properties":{"source_id":"SECE","station_name":"South End Circle","station_code":"SECE","source_name":"bmrcl_gtfs_unofficial"},"geometry":{"type":"Point","coordinates":[77.580055,12.938257]}},{"type":"Feature","id":"HSLI","properties":{"source_id":"HSLI","station_name":"Sri Balagangadharanatha Swamiji Station, Hosahalli","station_code":"HSLI","source_name":"bmrcl_gtfs_unofficial"},"geometry":{"type":"Point","coordinates":[77.54562,12.974293]}},{"type":"Feature","id":"SSHP","properties":{"source_id":"SSHP","station_name":"Sri Sathya Sai Hospital","station_code":"SSHP","source_name":"bmrcl_gtfs_unofficial"},"geometry":{"type":"Point","coordinates":[77.72754,12.981195]}},{"type":"Feature","id":"SPRU","properties":{"source_id":"SPRU","station_name":"Srirampura","station_code":"SPRU","source_name":"bmrcl_gtfs_unofficial"},"geometry":{"type":"Point","coordinates":[77.563194,12.996525]}},{"type":"Feature","id":"SVRD","properties":{"source_id":"SVRD","station_name":"Swami Vivekananda Road","station_code":"SVRD","source_name":"bmrcl_gtfs_unofficial"},"geometry":{"type":"Point","coordinates":[77.6449,12.985931]}},{"type":"Feature","id":"TGTP","properties":{"source_id":"TGTP","station_name":"Thalaghattapura","station_code":"TGTP","source_name":"bmrcl_gtfs_unofficial"},"geometry":{"type":"Point","coordinates":[77.5384,12.87141]}},{"type":"Feature","id":"TTY","properties":{"source_id":"TTY","station_name":"Trinity","station_code":"TTY","source_name":"bmrcl_gtfs_unofficial"},"geometry":{"type":"Point","coordinates":[77.61702,12.973022]}},{"type":"Feature","id":"VJRH","properties":{"source_id":"VJRH","station_name":"Vajarahalli","station_code":"VJRH","source_name":"bmrcl_gtfs_unofficial"},"geometry":{"type":"Point","coordinates":[77.54474,12.877437]}},{"type":"Feature","id":"VJN","properties":{"source_id":"VJN","station_name":"Vijayanagar","station_code":"VJN","source_name":"bmrcl_gtfs_unofficial"},"geometry":{"type":"Point","coordinates":[77.53741,12.970956]}},{"type":"Feature","id":"WHTM","properties":{"source_id":"WHTM","station_name":"Whitefield (Kadugodi)","station_code":"WHTM","source_name":"bmrcl_gtfs_unofficial"},"geometry":{"type":"Point","coordinates":[77.75795,12.995743]}},{"type":"Feature","id":"PUTH","properties":{"source_id":"PUTH","station_name":"Yelachenahalli","station_code":"PUTH","source_name":"bmrcl_gtfs_unofficial"},"geometry":{"type":"Point","coordinates":[77.57012,12.89605]}},{"type":"Feature","id":"YPM","properties":{"source_id":"YPM","station_name":"Yeshwantpur","station_code":"YPM","source_name":"bmrcl_gtfs_unofficial"},"geometry":{"type":"Point","coordinates":[77.54987,13.023268]}}]}
